#dP2021  5  4  0  0  0.00000000      96 __u+U ITR00 FIT  IAC
## 2156 172800.00000000   900.00000000 59338 0.0000000000000
+  116   C06C07C08C09C10C11C12C13C14C16C19C20C21C22C23C24C25
+        C26C27C28C29C30C32C33C34C35C36C37C38C39C40C41C42C43
+        C44C45C46E01E02E03E04E05E07E08E09E11E12E13E14E15E18
+        E19E21E24E25E26E27E30E31E33E36G01G02G03G04G05G06G07
+        G08G09G10G12G13G14G15G16G17G18G19G20G21G22G23G24G25
+        G26G27G28G29G30G31G32J01J02J03R01R02R03R04R05R07R08
+        R09R11R12R13R14R15R16R17R18R19R20R21R22R24  0  0  0
++         7  6  8  6  8  7  7  8  7  8  7  7  5  6  7  8  8
++         7  8  7  6  7  7  8  6  6  8  6  9  9  9  8  7  7
++         6  7  9  6  6  7  5  7  6  4  7  5  6  5  6  7  6
++         5  6  6  6  4  7  5  6  6  6  6  5  6  6  5  6  5
++         6  5  6  6  5  6  6  6  6  6  7  6  5  7  6  6  6
++         6  6  6  6  5  7  5  8  7  5  6  5  7  7  6  6  6
++         8  5  7  7  5  8  6  7  8  7  8  7  9  6  0  0  0
%c M  cc GPS ccc cccc cccc cccc cccc ccccc ccccc ccccc ccccc
%c cc cc ccc ccc cccc cccc cccc cccc ccccc ccccc ccccc ccccc
%f  0.0000000  0.000000000  0.00000000000  0.000000000000000
%f  0.0000000  0.000000000  0.00000000000  0.000000000000000
%i    0    0    0    0      0      0      0      0         0
%i    0    0    0    0      0      0      0      0         0
/* INFORMATION & ANALYSIS CENTER (IAC)      ULTRA-RAPID DATA
/* S/V CLOCKS ARE ALIGNED TO GNSS TIME                      
/* G:C1WC2W R:C1PC2P E:C1XC5X C:C2IC6I J:C1CC2S             
/* PCV:IGS14_2148 OL/AL:FES2004  NONE     YN ORB:CoN CLK:CoN
*  2021 05 04  8 30  0.00000000
PC06 -18215.075389  20135.320751 -31902.602955    346.548350
PC07 -21567.077315  35780.421377   3177.389922   -186.501400
PC08  -5423.960542  31112.384274  28235.674542   -890.361527
PC09   -872.142627  24605.171816 -33894.962533    549.080791
PC10  -9582.925287  37535.489220  16304.881706    -47.480969
PC11  -6106.384729 -16634.582332 -21491.767864    321.033954
PC12  13969.818582 -10685.818810 -21639.857866    898.811715
PC13   3833.874946  38241.525327  17721.050946    247.159542
PC14   3944.836084 -21193.580189  17784.227331    637.793343
PC16 -13964.932074  21372.566343 -33463.797648   -818.204594
PC19   5483.833069  16061.477402 -22115.569836    822.096883
PC20 -11290.700727  22565.363806 -11861.437993   -932.542138
PC21  22172.370423 -15868.400402  -5983.517101   -944.670626
PC22  19626.247423     44.936717 -19840.839379   -959.846464
PC23 -16933.712025 -10651.524734 -19453.354116   -899.579745
PC24   2806.170900 -24957.136544  12133.923730   -837.180067
PC25 -11118.424580 -24905.740890  -5859.012796   -922.448527
PC26  13135.772782 -11212.371906  21905.286370    911.944418
PC27 -22054.764920   5110.180987  16308.760638    525.985105
PC28 -26732.432006  -8005.128047     61.743391    -78.579608
PC29  16339.940982  15804.960379  16170.967365    387.567802
PC30  -4486.529553  15234.323852  22938.627514    465.186837
PC32 -22063.165097  15977.127328   6048.567427   -938.211445
PC33  -5511.859416 -16139.253555  22104.613427   -940.719440
PC34   3652.847701 -15507.341142 -22923.363678   -681.323715
PC35  26919.275533   7272.831513    254.103675   -297.020549
PC36  10350.721974  25319.830040   5544.204899   -727.975737
PC37 -13751.810876  10014.756365 -22107.804131   -900.796882
PC38  -3318.268079  34507.705462  24108.770674    146.457225
PC39  -9402.866597  22983.981673 -34071.842313 999999.999999
PC40 -17814.473913  35090.464550  14958.530625    157.526559
PC41 -19493.430678   -355.763361  20020.806101   -945.359380
PC42  11827.728369 -22645.923112  11297.278643   -917.853321
PC43 -15788.474160 -16094.403436 -16472.159978   -714.609838
PC44  21982.226735  -5851.921188 -16150.573727    170.367358
PC45  16868.947903  10542.589954  19580.919972    430.938083
PC46  -2002.793364  25422.116826 -11368.424207    286.800174
PE01  -7215.039549  28702.782101   -661.362782  -1100.510297
PE02   7128.447503 -28715.419461    533.131820    216.675730
PE03  10165.530346 -18482.478254  20777.424131   -427.163510
PE04  11586.542479  13834.933041 -23451.673582   -763.636601
PE05  26265.793878 -12337.448878   5854.809143   -283.716126
PE07 -26885.876929   -951.389115  12346.130566   -533.504603
PE08 -11932.488848 -13501.348799  23489.604102   6007.599727
PE09  26954.182464    596.575372 -12227.051215   5679.417394
PE11  24366.126671  11825.820051 -11924.989468   6021.772920
PE12  17461.134360  22689.886219   7462.302070   5227.817835
PE13 -24406.630193 -12138.221420  11556.802079    415.919380
PE14  29108.296047  -4358.135588  -3908.305453  -1419.117457
PE15 -17596.159660 -22615.893241  -7439.986639    816.110039
PE18 -25555.654292  -5907.594901  -7855.741213  -1553.031827
PE19 -12565.739938  18203.751293 -19659.345985    268.283969
PE21 -16119.895920  17787.320278 -17324.654433   -662.955727
PE24  15878.921230   4869.024282  24487.119066   -881.568878
PE25  16170.226176 -17601.911299  17460.131583   -532.799157
PE26 -16409.989294   6222.987332  23838.372069   1850.529085
PE27 -16086.134180  -3856.625916 -24546.251112    -24.974493
PE30  -5935.666339 -23751.756541 -16638.166349   2973.281757
PE31   6599.775081  23099.430959  17298.246825   -480.808999
PE33    421.662226  19756.819142  22035.741777   -468.223680
PE36  16824.381503  -5484.968013 -23723.560697   -202.406638
PG01 -19375.447317 -10005.601561  15147.559538    698.860246
PG02  12694.418612  22478.533021   6779.606884   -601.301719
PG03 -16107.303033    626.423110  21005.468631   -154.544205
PG04 -26097.357774  -1646.123261   4841.235525   -194.831543
PG05   8780.534128  15508.048183 -19791.399837    -40.936970
PG06   2503.546267  21330.406360  15647.542389     12.547108
PG07 -15338.546830   4199.037043 -20993.155518    141.050028
PG08 -22166.581478  -6621.988245 -13325.024901    -19.910320
PG09 -24961.214170   7090.647789  -5791.134743   -343.300903
PG10  11549.345950 -23714.760795  -1267.352223   -115.016691
PG12  14980.615134   2956.191042  21462.814835    -36.429997
PG13  14412.231255  13039.079455 -18294.423881    127.760486
PG14 -13086.854706  23023.032956  -1858.133563     90.065106
PG15  22949.665692   4987.898850 -13094.161372   -151.772512
PG16  -3822.022971 -18762.509677 -18447.915399   -319.742077
PG17 -13756.418693  13193.713668  18922.649494    436.836511
PG18  12540.907187  -8340.986004 -21886.205770    351.073322
PG19  -4644.327198  14395.421983  21533.067710     -4.504067
PG20  15882.175064   1111.308760 -21230.449630    522.531633
PG21 -20761.632075 -14659.241598   9224.662528    115.685529
PG22 -13138.135470  -9839.523230  21098.644797   -622.732854
PG23  16199.786323 -17381.890600 -11839.936720    109.369375
PG24  20776.765799  13223.425384  10195.727158     55.505979
PG25  17426.808548 -11000.770342  16336.277971    130.745446
PG26   1415.151267 -24228.017028 -10531.814181     80.781366
PG27 -12035.503441 -12603.564806 -20325.925810   -124.092621
PG28 -10779.554028  24180.925333   3774.021213    576.784086
PG29  25442.112943  -4767.803382  -6106.318233   -341.142249
PG30  -5735.630744  16977.434225 -19475.329107   -421.517417
PG31  -4197.180727 -22468.094967  13044.300171   -115.312644
PG32  10839.040646 -14809.539454  19249.485653     21.714890
PJ01 -36152.261396  21235.919974    243.641524   -373.949143
PJ02 -20940.196588  31743.261753 -13823.865073      7.150932
PJ03 -28952.959077  22405.939708  26003.241488     -4.688091
PR01 -21066.041348   7390.371058  12332.268815     78.891951
PR02 -17807.387447  16325.739994  -8229.916714    477.267081
PR03  -3325.127171  14162.923168 -20917.617286     35.315383
PR04  12717.550273   3825.333514 -21744.338071     85.238998
PR05  21698.268056  -8448.733765 -10374.763610     71.101633
PR07   2578.115985 -13862.465911  21289.267179    -42.513363
PR08 -12853.778580  -3895.997347  21749.709592    -58.854342
PR09   5678.051486 -20161.755020  14624.023839     -8.868325
PR11  -9465.660755 -16207.957255 -17270.685259     -2.097824
PR12 -10745.000507   2913.639451 -22927.866967    226.081729
PR13  -5755.961170  19648.866516 -15231.470988    -54.272387
PR14   2762.394553  25262.479411   2121.112090     63.867191
PR15   9449.647324  15908.315049  17575.308533    104.007842
PR16  10719.069103  -4141.374009  22738.901073    -14.653283
PR17   8649.568571  14185.841976  19371.728039    421.139825
PR18  20924.136640  13441.268964   5546.674182     75.309529
PR19  22230.112437   6671.440494 -10582.996204   -142.342776
PR20   9594.611193  -6287.778398 -22772.881921    -48.489097
PR21  -9721.796526 -14358.352696 -18703.170087   -206.411706
PR22 -21387.214563 -13272.448688  -4472.530689   -111.028792
PR24  -9082.055317   7255.409193  22717.158550     41.303307
EOF
